ONEWEB-0134             
1 47280U 20100Y   23299.72577994 -.00001308  00000+0 -36715-2 0  9996
2 47280  87.9055 182.4440 0001540  65.2938 294.8351 13.12449634138206
ONEWEB-0135             
1 47281U 20100Z   23299.69401114 -.00000174  00000+0 -51950-3 0  9992
2 47281  87.9056 182.4534 0001490  71.7336 288.3955 13.12440444138220
ONEWEB-0136             
1 47282U 20100AA  23300.17260580  .00000948  00000+0  25995-2 0  9995
2 47282  87.8977 182.3542 0002046  59.7186 300.4145 13.12438849138219
ONEWEB-0137             
1 47283U 20100AB  23299.75118589  .00000339  00000+0  90593-3 0  9999
2 47283  87.9048 182.4469 0001529  79.5304 280.5997 13.12443641138068
ONEWEB-0138             
1 47284U 20100AC  23300.18532235  .00001570  00000+0  43283-2 0  9999
2 47284  87.9055 182.3721 0001626  71.7329 288.3977 13.12435866138206
ONEWEB-0139             
1 47285U 20100AD  23299.70035815 -.00000320  00000+0 -92420-3 0  9999
2 47285  87.8998 182.4570 0001590  71.3792 288.7509 13.12440254138218
ONEWEB-0140             
1 47286U 20100AE  23300.17897206  .00000357  00000+0  95711-3 0  9998
2 47286  87.9054 182.3485 0001537  71.5123 288.6172 13.12440460138234
ONEWEB-0141             
1 47287U 20100AF  23299.66755288  .00000351  00000+0  94138-3 0  9999
2 47287  87.9054 182.4461 0001898  83.3679 276.7665 13.12442298138165
